{"type": "FeatureCollection", "name": "communes", "crs": {"type": "name", "properties": {"name": "urn:ogc:def:crs:EPSG::2154"}}, "features": [{"type": "Feature", "properties": {"insee": "35901", "nom": "Bourg-Test", "siren_epci": "35990001", "millesime": 2026}, "geometry": {"type": "Polygon", "coordinates": [[[405000.0, 6780000.0], [406250.0, 6780000.0], [407500.0, 6780000.0], [408750.0, 6780000.0], [410000.0, 6780000.0], [409965.75, 6781404.5], [409531.5, 6782809.0], [409552.25, 6784213.5], [409151.0, 6785618.0], [408215.5, 6785169.5], [407280.0, 6785022.0], [406344.5, 6784714.5], [405409.0, 6784328.0], [405071.75, 6783246.0], [405083.5, 6782164.0], [405039.25, 6781082.0], [405000.0, 6780000.0]]]}}, {"type": "Feature", "properties": {"insee": "35902", "nom": "Les Essais", "siren_epci": "35990001", "millesime": 2026}, "geometry": {"type": "Polygon", "coordinates": [[[400000.0, 6780000.0], [401250.0, 6780000.0], [402500.0, 6780000.0], [403750.0, 6780000.0], [405000.0, 6780000.0], [405039.25, 6781082.0], [405083.5, 6782164.0], [405071.75, 6783246.0], [405409.0, 6784328.0], [404056.75, 6784354.0], [402704.5, 6784899.0], [401352.25, 6785005.0], [400000.0, 6785000.0], [400000.0, 6783750.0], [400000.0, 6782500.0], [400000.0, 6781250.0], [400000.0, 6780000.0]]]}}, {"type": "Feature", "properties": {"insee": "35903", "nom": "Saint-Donnée", "siren_epci": "35990001", "millesime": 2026}, "geometry": {"type": "Polygon", "coordinates": [[[410000.0, 6780000.0], [411250.0, 6780000.0], [412500.0, 6780000.0], [413750.0, 6780000.0], [415000.0, 6780000.0], [415000.0, 6781250.0], [415000.0, 6782500.0], [415000.0, 6783750.0], [415000.0, 6785000.0], [413537.75, 6785266.5], [412075.5, 6785261.0], [410613.25, 6785536.5], [409151.0, 6785618.0], [409552.25, 6784213.5], [409531.5, 6782809.0], [409965.75, 6781404.5], [410000.0, 6780000.0]]]}}, {"type": "Feature", "properties": {"insee": "35904", "nom": "La Couche", "siren_epci": "35990001", "millesime": 2026}, "geometry": {"type": "Polygon", "coordinates": [[[400000.0, 6785000.0], [401352.25, 6785005.0], [402704.5, 6784899.0], [404056.75, 6784354.0], [405409.0, 6784328.0], [405200.75, 6785746.0], [404991.5, 6787164.0], [404982.25, 6788582.0], [405000.0, 6790000.0], [403750.0, 6790000.0], [402500.0, 6790000.0], [401250.0, 6790000.0], [400000.0, 6790000.0], [400000.0, 6788750.0], [400000.0, 6787500.0], [400000.0, 6786250.0], [400000.0, 6785000.0]]]}}, {"type": "Feature", "properties": {"insee": "35905", "nom": "Val-Postgis", "siren_epci": "35990001", "millesime": 2026}, "geometry": {"type": "Polygon", "coordinates": [[[405409.0, 6784328.0], [406344.5, 6784714.5], [407280.0, 6785022.0], [408215.5, 6785169.5], [409151.0, 6785618.0], [409313.25, 6786713.5], [409738.5, 6787809.0], [409765.75, 6788904.5], [410000.0, 6790000.0], [408750.0, 6790000.0], [407500.0, 6790000.0], [406250.0, 6790000.0], [405000.0, 6790000.0], [404982.25, 6788582.0], [404991.5, 6787164.0], [405200.75, 6785746.0], [405409.0, 6784328.0]]]}}, {"type": "Feature", "properties": {"insee": "35906", "nom": "Montserveur", "siren_epci": "35990001", "millesime": 2026}, "geometry": {"type": "Polygon", "coordinates": [[[409151.0, 6785618.0], [410613.25, 6785536.5], [412075.5, 6785261.0], [413537.75, 6785266.5], [415000.0, 6785000.0], [415000.0, 6786250.0], [415000.0, 6787500.0], [415000.0, 6788750.0], [415000.0, 6790000.0], [413750.0, 6790000.0], [412500.0, 6790000.0], [411250.0, 6790000.0], [410000.0, 6790000.0], [409765.75, 6788904.5], [409738.5, 6787809.0], [409313.25, 6786713.5], [409151.0, 6785618.0]]]}}]}