{"type": "FeatureCollection", "name": "zones_projet", "crs": {"type": "name", "properties": {"name": "urn:ogc:def:crs:EPSG::2154"}}, "features": [{"type": "Feature", "properties": {"id_zone": "Z01", "nom": "ZAC du Centre", "type_zone": "ZAC", "nb_logements_prevus": 420}, "geometry": {"type": "Polygon", "coordinates": [[[406891.3, 6781999.3], [408091.3, 6781999.3], [408091.3, 6782799.3], [406891.3, 6782799.3], [406891.3, 6781999.3]]]}}, {"type": "Feature", "properties": {"id_zone": "Z02", "nom": "Écoquartier des Tests", "type_zone": "ZAC", "nb_logements_prevus": 310}, "geometry": {"type": "Polygon", "coordinates": [[[407546.5, 6787090.0], [408546.5, 6787090.0], [408546.5, 6788090.0], [407546.5, 6788090.0], [407546.5, 6787090.0]]]}}, {"type": "Feature", "properties": {"id_zone": "Z03", "nom": "Renouvellement Les Tours", "type_zone": "Renouvellement urbain", "nb_logements_prevus": 150}, "geometry": {"type": "Polygon", "coordinates": [[[405641.3, 6783299.3], [406341.3, 6783299.3], [406341.3, 6783899.3], [405641.3, 6783899.3], [405641.3, 6783299.3]]]}}, {"type": "Feature", "properties": {"id_zone": "Z04", "nom": "ZAC de la Frontière", "type_zone": "ZAC", "nb_logements_prevus": 200}, "geometry": {"type": "Polygon", "coordinates": [[[409491.3, 6783899.3], [410691.3, 6785199.3], [410691.3, 6783899.3], [409491.3, 6785199.3], [409491.3, 6783899.3]]]}}, {"type": "Feature", "properties": {"id_zone": "Z05", "nom": "Lotissement du Serveur", "type_zone": "Lotissement", "nb_logements_prevus": 60}, "geometry": {"type": "Polygon", "coordinates": [[[411877.2, 6781688.8], [412677.2, 6781688.8], [412677.2, 6782188.8], [411877.2, 6782188.8], [411877.2, 6781688.8]]]}}]}